OBJECT_NAME,OBJECT_ID,EPOCH,MEAN_MOTION,ECCENTRICITY,INCLINATION,RA_OF_ASC_NODE,ARG_OF_PERICENTER,MEAN_ANOMALY,EPHEMERIS_TYPE,CLASSIFICATION_TYPE,NORAD_CAT_ID,ELEMENT_SET_NO,REV_AT_EPOCH,BSTAR,MEAN_MOTION_DOT,MEAN_MOTION_DDOT
STARLINK-37956,2026-147H,2026-07-21T14:00:01.999872,15.66740935,.00017505,97.2844,239.3233,79.7198,1.9035,0,U,69711,999,476,-.26601951E-1,-.2446779E-1,0
STARLINK-38043,2026-147J,2026-07-21T13:21:26.685504,15.80956925,.00011103,97.2837,239.3264,64.3563,295.7820,0,U,69712,999,486,.13057371E-2,.259206E-2,0
STARLINK-38020,2026-147K,2026-07-21T14:00:01.999872,15.67167359,.00015049,97.2842,239.3295,75.0213,20.1332,0,U,69713,999,476,-.23859904E-1,-.2212207E-1,0
STARLINK-38059,2026-147L,2026-07-21T14:00:01.999872,15.66954921,.00018065,97.2844,239.3260,79.1486,9.0611,0,U,69714,999,476,-.25971427E-1,-.2414281E-1,0
STARLINK-38061,2026-147M,2026-07-21T13:17:17.418048,15.81875300,.00096177,97.2828,239.3312,337.1200,22.9639,0,U,69715,999,486,.17354633E-2,.364588E-2,0
STARLINK-38060,2026-147N,2026-07-21T01:07:53.561280,15.80909385,.00010879,97.2834,238.7949,112.1113,248.0271,0,U,69716,999,478,.11661327E-2,.230201E-2,0
STARLINK-38040,2026-147P,2026-07-21T14:00:01.999872,15.70645085,.00019592,97.2842,239.3484,85.6068,55.2739,0,U,69717,999,485,-.24219037E-1,-.2595224E-1,0
STARLINK-37989,2026-147Q,2026-07-21T14:00:01.999872,15.69493142,.00016557,97.2846,239.3383,81.2461,37.0208,0,U,69718,999,485,-.12839417E-1,-.1341996E-1,0
STARLINK-38039,2026-147R,2026-07-21T13:13:53.019840,15.80885144,.00023584,97.2833,239.3333,67.0568,293.0949,0,U,69719,999,486,.11824531E-2,.23326E-2,0
STARLINK-38003,2026-147S,2026-07-21T13:12:52.058592,15.80634825,.00080016,97.2840,239.3348,45.4033,314.7887,0,U,69720,999,486,.76834897E-3,.148613E-2,0
STARLINK-38014,2026-147T,2026-07-21T13:12:00.975456,15.79212319,.00039711,97.2831,239.3359,51.4996,308.6627,0,U,69721,999,486,-.58956186E-2,-.943808E-2,0
STARLINK-37915,2026-147U,2026-07-21T13:10:40.820448,15.80864317,.00032275,97.2837,239.3370,327.1144,32.9923,0,U,69722,999,486,.19672011E-2,.395139E-2,0
STARLINK-38007,2026-147V,2026-07-21T13:14:07.103904,15.80709685,.00043228,97.2843,239.3329,48.3324,311.8314,0,U,69723,999,486,.11069891E-2,.216268E-2,0
STARLINK-38008,2026-147W,2026-07-21T00:59:14.301600,15.80888268,.00020164,97.2827,238.8011,109.5484,250.6002,0,U,69724,999,478,.10850528E-2,.213574E-2,0
STARLINK-38021,2026-147X,2026-07-21T14:00:01.999872,15.76162269,.00013672,97.2840,239.3738,92.1994,108.2849,0,U,69725,999,485,-.61399867E-2,-.86447E-2,0
STARLINK-38015,2026-147Y,2026-07-21T14:00:01.999872,15.75188027,.00012498,97.2851,239.3449,99.1254,30.5171,0,U,69726,999,485,.22138438E-4,.3173E-4,0
STARLINK-38010,2026-147Z,2026-07-21T12:40:21.485280,15.75283129,.00005683,97.2838,239.2112,57.7182,302.4138,0,U,69727,999,485,.16386676E-2,.25268E-2,0
SXM-11,2026-148A,2026-07-21T14:13:06.980160,1.00271119,.00020884,0.0952,264.7595,189.1463,298.1852,0,U,69728,999,38,0,.12E-6,0
HAIYANG-2E,2026-149A,2026-07-21T11:16:39.425664,13.79299087,.00015448,99.3443,209.3095,84.4295,275.7033,0,U,69737,999,268,.7178512E-5,-.37E-6,0
CZ-4B R/B,2026-149B,2026-07-21T11:43:09.483744,14.30069195,.01978763,99.3220,210.9568,311.9249,46.5206,0,U,69738,999,303,.4107156E-4,.73E-6,0
STARLINK-38033,2026-150A,2026-07-21T12:59:28.097952,15.80978303,.00004526,97.2845,41.2705,166.5961,193.5319,0,U,69739,999,432,.23671375E-2,.482927E-2,0
STARLINK-38076,2026-150B,2026-07-21T12:27:32.932224,15.75337500,.00012325,97.2842,41.1447,123.1888,236.9495,0,U,69740,999,431,.22343885E-2,.349372E-2,0
STARLINK-38074,2026-150C,2026-07-21T14:00:01.999872,15.75204539,.0001287,97.2852,41.2910,79.5411,104.5147,0,U,69741,999,432,-.33311915E-3,-.4956E-3,0
STARLINK-38041,2026-150D,2026-07-21T11:55:32.035584,15.75291148,.00009396,97.2857,41.1776,107.7456,252.3912,0,U,69742,999,431,.18809262E-2,.29149E-2,0
STARLINK-38087,2026-150E,2026-07-21T11:44:51.545472,15.75305582,.0000889,97.2855,41.1862,110.5466,249.5895,0,U,69743,999,431,.19369599E-2,.300693E-2,0
STARLINK-38078,2026-150F,2026-07-21T00:43:15.554496,15.80867225,.00021817,97.2856,40.7402,57.2378,302.9101,0,U,69744,999,424,.13641222E-2,.27004E-2,0
STARLINK-38047,2026-150G,2026-07-21T11:52:59.436768,15.75302424,.00003151,97.2855,41.1790,157.9044,202.2235,0,U,69745,999,431,.20602792E-2,.320572E-2,0
STARLINK-38046,2026-150H,2026-07-21T14:00:01.999872,15.75209496,.00012905,97.2854,41.3140,83.7828,150.2684,0,U,69746,999,432,-.41689807E-3,-.61916E-3,0
STARLINK-38067,2026-150J,2026-07-21T12:10:46.670304,15.75255894,.00013525,97.2868,41.1622,113.2030,246.9378,0,U,69747,999,431,.11780291E-2,.179842E-2,0
STARLINK-37988,2026-150K,2026-07-21T12:08:14.328096,15.75302625,.00012332,97.2843,41.1640,113.8702,246.2693,0,U,69748,999,431,.19686813E-2,.30576E-2,0
