STARLINK-37956          
1 69711U 26147H   26202.58335648 -.02446779  00000+0 -26602-1 0  9995
2 69711  97.2844 239.3233 0001750  79.7198   1.9035 15.66740935  4760
STARLINK-38043          
1 69712U 26147J   26202.55655886  .00259206  00000+0  13057-2 0  9996
2 69712  97.2837 239.3264 0001110  64.3563 295.7820 15.80956925  4863
STARLINK-38020          
1 69713U 26147K   26202.58335648 -.02212207  00000+0 -23860-1 0  9997
2 69713  97.2842 239.3295 0001504  75.0213  20.1332 15.67167359  4769
STARLINK-38059          
1 69714U 26147L   26202.58335648 -.02414281  00000+0 -25971-1 0  9999
2 69714  97.2844 239.3260 0001806  79.1486   9.0611 15.66954921  4760
STARLINK-38061          
1 69715U 26147M   26202.55367382  .00364588  00000+0  17355-2 0  9995
2 69715  97.2828 239.3312 0009617 337.1200  22.9639 15.81875300  4865
STARLINK-38060          
1 69716U 26147N   26202.04714770  .00230201  00000+0  11661-2 0  9995
2 69716  97.2834 238.7949 0001087 112.1113 248.0271 15.80909385  4783
STARLINK-38040          
1 69717U 26147P   26202.58335648 -.02595224  00000+0 -24219-1 0  9993
2 69717  97.2842 239.3484 0001959  85.6068  55.2739 15.70645085  4853
STARLINK-37989          
1 69718U 26147Q   26202.58335648 -.01341996  00000+0 -12839-1 0  9993
2 69718  97.2846 239.3383 0001655  81.2461  37.0208 15.69493142  4850
STARLINK-38039          
1 69719U 26147R   26202.55130810  .00233260  00000+0  11825-2 0  9991
2 69719  97.2833 239.3333 0002358  67.0568 293.0949 15.80885144  4860
STARLINK-38003          
1 69720U 26147S   26202.55060253  .00148613  00000+0  76835-3 0  9996
2 69720  97.2840 239.3348 0008001  45.4033 314.7887 15.80634825  4864
STARLINK-38014          
1 69721U 26147T   26202.55001129 -.00943808  00000+0 -58956-2 0  9998
2 69721  97.2831 239.3359 0003971  51.4996 308.6627 15.79212319  4865
STARLINK-37915          
1 69722U 26147U   26202.54908357  .00395139  00000+0  19672-2 0  9995
2 69722  97.2837 239.3370 0003227 327.1144  32.9923 15.80864317  4866
STARLINK-38007          
1 69723U 26147V   26202.55147111  .00216268  00000+0  11070-2 0  9999
2 69723  97.2843 239.3329 0004322  48.3324 311.8314 15.80709685  4866
STARLINK-38008          
1 69724U 26147W   26202.04113775  .00213574  00000+0  10851-2 0  9996
2 69724  97.2827 238.8011 0002016 109.5484 250.6002 15.80888268  4786
STARLINK-38021          
1 69725U 26147X   26202.58335648 -.00864470  00000+0 -61400-2 0  9996
2 69725  97.2840 239.3738 0001367  92.1994 108.2849 15.76162269  4851
STARLINK-38015          
1 69726U 26147Y   26202.58335648  .00003173  00000+0  22138-4 0  9997
2 69726  97.2851 239.3449 0001249  99.1254  30.5171 15.75188027  4852
STARLINK-38010          
1 69727U 26147Z   26202.52802645  .00252680  00000+0  16387-2 0  9994
2 69727  97.2838 239.2112 0000568  57.7182 302.4138 15.75283129  4850
SXM-11                  
1 69728U 26148A   26202.59244190  .00000012  00000+0  00000+0 0  9990
2 69728   0.0952 264.7595 0002088 189.1463 298.1852  1.00271119   386
HAIYANG-2E              
1 69737U 26149A   26202.46990076 -.00000037  00000+0  71785-5 0  9990
2 69737  99.3443 209.3095 0001544  84.4295 275.7033 13.79299087  2688
CZ-4B R/B               
1 69738U 26149B   26202.48830421  .00000073  00000+0  41072-4 0  9994
2 69738  99.3220 210.9568 0197876 311.9249  46.5206 14.30069195  3035
STARLINK-38033          
1 69739U 26150A   26202.54129743  .00482927  00000+0  23671-2 0  9997
2 69739  97.2845  41.2705 0000452 166.5961 193.5319 15.80978303  4329
STARLINK-38076          
1 69740U 26150B   26202.51913116  .00349372  00000+0  22344-2 0  9993
2 69740  97.2842  41.1447 0001232 123.1888 236.9495 15.75337500  4312
STARLINK-38074          
1 69741U 26150C   26202.58335648 -.00049560  00000+0 -33312-3 0  9995
2 69741  97.2852  41.2910 0001287  79.5411 104.5147 15.75204539  4326
STARLINK-38041          
1 69742U 26150D   26202.49689856  .00291490  00000+0  18809-2 0  9991
2 69742  97.2857  41.1776 0000939 107.7456 252.3912 15.75291148  4310
STARLINK-38087          
1 69743U 26150E   26202.48948548  .00300693  00000+0  19370-2 0  9997
2 69743  97.2855  41.1862 0000889 110.5466 249.5895 15.75305582  4318
STARLINK-38078          
1 69744U 26150F   26202.03004114  .00270040  00000+0  13641-2 0  9998
2 69744  97.2856  40.7402 0002181  57.2378 302.9101 15.80867225  4240
STARLINK-38047          
1 69745U 26150G   26202.49513237  .00320572  00000+0  20603-2 0  9992
2 69745  97.2855  41.1790 0000315 157.9044 202.2235 15.75302424  4317
STARLINK-38046          
1 69746U 26150H   26202.58335648 -.00061916  00000+0 -41690-3 0  9997
2 69746  97.2854  41.3140 0001290  83.7828 150.2684 15.75209496  4323
STARLINK-38067          
1 69747U 26150J   26202.50748461  .00179842  00000+0  11780-2 0  9993
2 69747  97.2868  41.1622 0001352 113.2030 246.9378 15.75255894  4310
STARLINK-37988          
1 69748U 26150K   26202.50572139  .00305760  00000+0  19687-2 0  9995
2 69748  97.2843  41.1640 0001233 113.8702 246.2693 15.75302625  4312
